NORAD_CAT_ID,OBJECT_NAME,OBJECT_TYPE,EPOCH,MEAN_MOTION,ECCENTRICITY,INCLINATION,RA_OF_ASC_NODE,ARG_OF_PERICENTER,MEAN_ANOMALY,BSTAR,MEAN_MOTION_DOT,MEAN_MOTION_DDOT,TLE_LINE0,TLE_LINE1,TLE_LINE2,SEMIMAJOR_AXIS,PERIOD,APOGEE,PERIGEE,DECAYED
49456.0,STARLINK-3124,PAYLOAD,2022-06-19 08:32:53,15.08837808,0.0003032,53.2188,201.414,33.5552,326.5632,5.2595e-05,5.48e-06,0.0,0 STARLINK-3124,1 49456U 21104BA  22170.35617397  .00000548  00000-0  52595-4 0  9996,2 49456  53.2188 201.4140 0003032  33.5552 326.5632 15.08837808 33562,6917.887,95.438,541.85,537.655,0.0
49456.0,STARLINK-3124,PAYLOAD,2022-06-19 19:40:35,15.08836531,0.0003101,53.2183,199.3322,35.1688,324.9509,0.00010747,1.422e-05,0.0,0 STARLINK-3124,1 49456U 21104BA  22170.81985405  .00001422  00000-0  10747-3 0  9999,2 49456  53.2183 199.3322 0003101  35.1688 324.9509 15.08836531 33634,6917.891,95.438,541.901,537.611,0.0
49456.0,STARLINK-3124,PAYLOAD,2022-06-20 11:34:26,15.08842529,0.0003097,53.2186,196.359,35.3162,324.8035,0.0001364,1.883e-05,0.0,0 STARLINK-3124,1 49456U 21104BA  22171.48225113  .00001883  00000-0  13640-3 0  9992,2 49456  53.2186 196.3590 0003097  35.3162 324.8035 15.08842529 33732,6917.873000000001,95.437,541.88,537.595,0.0
49456.0,STARLINK-3124,PAYLOAD,2022-06-21 03:28:18,15.08835128,0.0003155,53.2185,193.3858,34.082,326.0374,1.4369e-05,-6e-07,0.0,0 STARLINK-3124,1 49456U 21104BA  22172.14465805 -.00000060  00000-0  14369-4 0  9997,2 49456  53.2185 193.3858 0003155  34.0820 326.0374 15.08835128 34904,6917.895,95.438,541.943,537.578,0.0
49456.0,STARLINK-3124,PAYLOAD,2022-06-21 11:25:14,15.08836469,0.0003136,53.2185,191.8989,35.234,324.8859,-4.0989e-06,-3.54e-06,0.0,0 STARLINK-3124,1 49456U 21104BA  22172.47585859 -.00000354  00000-0 -40989-5 0  9990,2 49456  53.2185 191.8989 0003136  35.2340 324.8859 15.08836469 33880,6917.891,95.438,541.9259999999998,537.587,0.0
49456.0,STARLINK-3124,PAYLOAD,2022-06-21 17:46:46,15.0883745,0.0003193,53.2189,190.71,33.8293,326.2903,-3.1439e-06,-3.39e-06,0.0,0 STARLINK-3124,1 49456U 21104BA  22172.74081812 -.00000339  00000-0 -31439-5 0  9993,2 49456  53.2189 190.7100 0003193  33.8293 326.2903 15.08837450 33923,6917.888000000001,95.438,541.962,537.544,0.0
49456.0,STARLINK-3124,PAYLOAD,2022-06-22 11:16:01,15.08840917,0.0003193,53.2186,187.4386,37.7755,322.346,1.1039e-06,-2.71e-06,0.0,0 STARLINK-3124,1 49456U 21104BA  22173.46945648 -.00000271  00000-0  11039-5 0  9997,2 49456  53.2186 187.4386 0003193  37.7755 322.3460 15.08840917 35104,6917.878000000002,95.437,541.951,537.534,0.0
49456.0,STARLINK-3124,PAYLOAD,2022-06-22 17:37:33,15.0884416,0.0003159,53.2186,186.2492,36.5381,323.5826,-1.8883e-05,-5.89e-06,0.0,0 STARLINK-3124,1 49456U 21104BA  22173.73441465 -.00000589  00000-0 -18883-4 0  9991,2 49456  53.2186 186.2492 0003159  36.5381 323.5826 15.08844160 34071,6917.868,95.437,541.918,537.547,0.0
49456.0,STARLINK-3124,PAYLOAD,2022-06-23 11:06:48,15.08838294,0.0003229,53.2186,182.9784,38.4735,321.6486,0.00010964,1.457e-05,0.0,0 STARLINK-3124,1 49456U 21104BA  22174.46305596  .00001457  00000-0  10964-3 0  9990,2 49456  53.2186 182.9784 0003229  38.4735 321.6486 15.08838294 34184,6917.886,95.438,541.984,537.5169999999998,0.0
49456.0,STARLINK-3124,PAYLOAD,2022-06-23 17:28:20,15.08840264,0.0003231,53.2187,181.789,39.1064,321.0161,0.00011609,1.559e-05,0.0,0 STARLINK-3124,1 49456U 21104BA  22174.72801494  .00001559  00000-0  11609-3 0  9997,2 49456  53.2187 181.7890 0003231  39.1064 321.0161 15.08840264 35293,6917.88,95.438,541.98,537.509,0.0
49456.0,STARLINK-3124,PAYLOAD,2022-06-24 09:22:11,15.08844552,0.0003278,53.2187,178.8155,40.4999,319.6237,0.00011304,1.511e-05,0.0,0 STARLINK-3124,1 49456U 21104BA  22175.39041209  .00001511  00000-0  11304-3 0  9991,2 49456  53.2187 178.8155 0003278  40.4999 319.6237 15.08844552 34321,6917.866,95.437,541.999,537.464,0.0
49456.0,STARLINK-3124,PAYLOAD,2022-06-25 01:16:03,15.08838537,0.0003317,53.2187,175.8419,41.3503,318.774,3.1255e-05,2.09e-06,0.0,0 STARLINK-3124,1 49456U 21104BA  22176.05281775  .00000209  00000-0  31255-4 0  9990,2 49456  53.2187 175.8419 0003317  41.3503 318.7740 15.08838537 35490,6917.885,95.438,542.045,537.455,0.0
49456.0,STARLINK-3124,PAYLOAD,2022-06-25 09:12:59,15.08832511,0.0003289,53.2189,174.3551,41.7446,318.3796,-2.8781e-05,-7.47e-06,0.0,0 STARLINK-3124,1 49456U 21104BA  22176.38402353 -.00000747  00000-0 -28781-4 0  9992,2 49456  53.2189 174.3551 0003289  41.7446 318.3796 15.08832511 35540,6917.903,95.438,542.044,537.493,0.0
49456.0,STARLINK-3124,PAYLOAD,2022-06-25 17:09:55,15.08834553,0.0003304,53.219,172.8685,41.8866,318.2378,-3.0728e-05,-7.78e-06,0.0,0 STARLINK-3124,1 49456U 21104BA  22176.71522315 -.00000778  00000-0 -30728-4 0  9998,2 49456  53.2190 172.8685 0003304  41.8866 318.2378 15.08834553 34528,6917.897,95.438,542.048,537.476,0.0
49456.0,STARLINK-3124,PAYLOAD,2022-06-26 09:03:46,15.08837665,0.0003299,53.2193,169.8944,43.4684,316.6568,-1.5323e-05,-5.33e-06,0.0,0 STARLINK-3124,1 49456U 21104BA  22177.37762233 -.00000533  00000-0 -15323-4 0  9999,2 49456  53.2193 169.8944 0003299  43.4684 316.6568 15.08837665 35693,6917.888000000001,95.438,542.035,537.47,0.0
49456.0,STARLINK-3124,PAYLOAD,2022-06-26 17:00:42,15.08836138,0.0003348,53.2191,168.4082,43.7373,316.3883,1.9331e-05,1.9e-07,0.0,0 STARLINK-3124,1 49456U 21104BA  22177.70882279  .00000019  00000-0  19331-4 0  9999,2 49456  53.2191 168.4082 0003348  43.7373 316.3883 15.08836138 34670,6917.892,95.438,542.073,537.441,0.0
49456.0,STARLINK-3124,PAYLOAD,2022-06-27 05:43:47,15.08833924,0.0003344,53.2193,166.0292,44.6283,315.4977,9.5396e-05,1.23e-05,0.0,0 STARLINK-3124,1 49456U 21104BA  22178.23874361  .00001230  00000-0  95396-4 0  9992,2 49456  53.2193 166.0292 0003344  44.6283 315.4977 15.08833924 34758,6917.899,95.438,542.077,537.451,0.0
49456.0,STARLINK-3124,PAYLOAD,2022-06-28 03:59:11,15.08840341,0.0003424,53.2192,161.8667,46.3501,313.7775,0.00010643,1.406e-05,0.0,0 STARLINK-3124,1 49456U 21104BA  22179.16610098  .00001406  00000-0  10643-3 0  9996,2 49456  53.2192 161.8667 0003424  46.3501 313.7775 15.08840341 35969,6917.879,95.438,542.113,537.376,0.0
49456.0,STARLINK-3124,PAYLOAD,2022-06-28 08:45:20,15.08842144,0.0003448,53.2192,160.9748,46.6355,313.4924,0.00010317,1.354e-05,0.0,0 STARLINK-3124,1 49456U 21104BA  22179.36481999  .00001354  00000-0  10317-3 0  9994,2 49456  53.2192 160.9748 0003448  46.6355 313.4924 15.08842144 34926,6917.874,95.437,542.124,537.354,0.0
49456.0,STARLINK-3124,PAYLOAD,2022-06-28 18:17:39,15.0884466,0.0003475,53.2191,159.1907,47.6121,312.5164,0.00010079,1.316e-05,0.0,0 STARLINK-3124,1 49456U 21104BA  22179.76225762  .00001316  00000-0  10079-3 0  9995,2 49456  53.2191 159.1907 0003475  47.6121 312.5164 15.08844660 34981,6917.866,95.437,542.135,537.327,0.0
49456.0,STARLINK-3124,PAYLOAD,2022-06-29 05:25:21,15.08835173,0.0003466,53.2193,157.1091,48.9203,311.2088,-2.1301e-06,-3.23e-06,0.0,0 STARLINK-3124,1 49456U 21104BA  22180.22594688 -.00000323  00000-0 -21301-5 0  9995,2 49456  53.2193 157.1091 0003466  48.9203 311.2088 15.08835173 35059,6917.895,95.438,542.158,537.362,0.0
49456.0,STARLINK-3124,PAYLOAD,2022-06-29 14:57:40,15.08834366,0.0003495,53.2195,155.3255,49.0734,311.056,-3.3883e-05,-8.28e-06,0.0,0 STARLINK-3124,1 49456U 21104BA  22180.62338920 -.00000828  00000-0 -33883-4 0  9991,2 49456  53.2195 155.3255 0003495  49.0734 311.0560 15.08834366 35119,6917.898,95.438,542.18,537.345,0.0
49456.0,STARLINK-3124,PAYLOAD,2022-06-30 05:16:08,15.08837329,0.0003478999999999,53.2195,152.6496,50.5675,309.5625,-2.6008e-05,-7.03e-06,0.0,0 STARLINK-3124,1 49456U 21104BA  22181.21954775 -.00000703  00000-0 -26008-4 0  9992,2 49456  53.2195 152.6496 0003479  50.5675 309.5625 15.08837329 36273,6917.889,95.438,542.16,537.347,0.0
49456.0,STARLINK-3124,PAYLOAD,2022-06-30 08:26:55,15.08837723,0.0003494,53.2195,152.0548,50.6688,309.4614,-2.3038e-05,-6.56e-06,0.0,0 STARLINK-3124,1 49456U 21104BA  22181.35202756 -.00000656  00000-0 -23038-4 0  9999,2 49456  53.2195 152.0548 0003494  50.6688 309.4614 15.08837723 35226,6917.887,95.438,542.169,537.335,0.0
49456.0,STARLINK-3124,PAYLOAD,2022-06-30 21:10:00,15.08839307,0.0003496,53.2196,149.67600000000004,51.2025,308.9279,-2.0687e-05,-6.18e-06,0.0,0 STARLINK-3124,1 49456U 21104BA  22181.88194680 -.00000618  00000-0 -20687-4 0  9998,2 49456  53.2196 149.6760 0003496  51.2025 308.9279 15.08839307 35309,6917.8830000000025,95.438,542.1659999999998,537.3290000000002,0.0
49456.0,STARLINK-3124,PAYLOAD,2022-07-01 06:42:19,15.08835215,0.0003535,53.2191,147.8918,51.7984,308.3326,8.476e-05,1.06e-05,0.0,0 STARLINK-3124,1 49456U 21104BA  22182.27938717  .00001060  00000-0  84760-4 0  9991,2 49456  53.2191 147.8918 0003535  51.7984 308.3326 15.08835215 35369,6917.895,95.438,542.205,537.315,0.0
49456.0,STARLINK-3124,PAYLOAD,2022-07-01 21:00:47,15.08839668,0.0003587,53.2193,145.2156,53.0568,307.0752,8.1299e-05,1.005e-05,0.0,0 STARLINK-3124,1 49456U 21104BA  22182.87554557  .00001005  00000-0  81299-4 0  9996,2 49456  53.2193 145.2156 0003587  53.0568 307.0752 15.08839668 35452,6917.880999999999,95.438,542.2280000000002,537.265,0.0
49456.0,STARLINK-3124,PAYLOAD,2022-07-02 06:33:05,15.0884381,0.0003603,53.2193,143.4315,54.042,306.0906,9.8216e-05,1.275e-05,0.0,0 STARLINK-3124,1 49456U 21104BA  22183.27298252  .00001275  00000-0  98216-4 0  9994,2 49456  53.2193 143.4315 0003603  54.0420 306.0906 15.08843810 36585,6917.869000000002,95.437,542.226,537.241,0.0
49456.0,STARLINK-3124,PAYLOAD,2022-07-03 06:23:52,15.08846748,0.0003626,53.2193,138.9716,56.0897,304.0440000000001,0.00011769,1.585e-05,0.0,0 STARLINK-3124,1 49456U 21104BA  22184.26657520  .00001585  00000-0  11769-3 0  9992,2 49456  53.2193 138.9716 0003626  56.0897 304.0440 15.08846748 36735,6917.86,95.437,542.2330000000002,537.216,0.0
